0 ISS (ZARYA)
1 25544U 98067A   23257.17946881  .00016640  00000-0  30676-3 0  9995
2 25544  63.43 247.6952 0005434  17.9419  85.7369 15.49250860415595
0 STARLINK-30378
1 57787U 23134S   23255.91667824 -.00854216  00000-0 -43988-2 0  9999
2 57787  43.0022 107.5602 0001377 238.8218 285.4877 15.82363489  2639
0 STARLINK-30387
1 57788U 23134T   23255.91667824 -.00855251  00000-0 -43997-2 0  9990
2 57788  43.0021 107.5592 0002432 199.5290 325.1879 15.82376750  2632
0 STARLINK-30372
1 57789U 23134U   23255.91667824 -.00852926  00000-0 -43909-2 0  9990
2 57789  43.0021 107.5592 0001073 217.3053 307.2089 15.82369038  2634
0 STARLINK-30373
1 57790U 23134V   23255.91667824 -.00858094  00000-0 -44158-2 0  9991
2 57790  43.0022 107.5590 0001625 259.8294 265.0914 15.82385009  2630
0 STARLINK-30367
1 57791U 23134W   23256.16667824 -.00905938  00000-0 -47888-2 0  9993
2 57791  43.0023 106.0238 0000558 265.3958 245.4076 15.81947093  2501
0 TIANQI 21
1 57792U 23135A   23256.06776365  .00000375  00000-0  20959-3 0  9995
2 57792  49.9717  71.4948 0011984 330.8294  29.1950 14.29224045  1105
0 TIANQI 22
1 57793U 23135B   23256.06678221  .00000390  00000-0  21473-3 0  9997
2 57793  49.9687  71.4873 0012551 333.6329  26.3945 14.29406933  1101
0 TIANQI 23
1 57794U 23135C   23256.06630497  .00000464  00000-0  24328-3 0  9995
2 57794  49.9726  71.4872 0012345 336.8204  23.2152 14.29497999  1101
0 TIANQI 24
1 57795U 23135D   23256.06625870  .00000388  00000-0  21340-3 0  9991
2 57795  49.9735  71.4874 0013119 334.3878  25.6385 14.29504808  1106
0 XRISM
1 57800U 23137A   23255.92936277  .00007567  00000-0  71332-3 0  9992
2 57800  31.0398 339.4573 0037196 293.4604  66.2122 14.91979647   897
0 YAOGAN-40 01A
1 57830U 23139A   23256.47584676 -.00043462  00000-0 -18204-1 0  9993
2 57830  85.9982 351.9422 0010931 253.0934 179.9861 14.26407037   478
0 YAOGAN-40 01B
1 57832U 23139C   23256.48768883 -.00002434  00000-0 -10170-2 0  9999
2 57832  85.9978 351.9350 0010582 254.0615 241.3734 14.26616541   479
0 YAOGAN-40 01C
1 57834U 23139E   23256.48736315 -.00003178  00000-0 -13188-2 0  9994
2 57834  85.9966 351.9342 0009953 262.0429 234.6632 14.26880885   477